[
    {
        "Altitude(m)": 565044.5059194629,
        "Argument of Periapsis(deg)": 0.026491964442854003,
        "Eccentricity": 0.0,
        "Inclination(deg)": 53.0,
        "Latitude(deg)": -36.38879584199082,
        "Longitude(deg)": -94.65893598229653,
        "Mean Anomaly(deg)": -132.36082852968963,
        "RAAN(deg)": 154.96057347411207,
        "Satellite Name": "Starlink Shell 1 693",
        "Satellite Number": 693,
        "Semi-Major Axis(m)": 6931778.249405717,
        "Time(s)": 760
    },
    {
        "Altitude(m)": 565214.5123179071,
        "Argument of Periapsis(deg)": 0.02684054292236524,
        "Eccentricity": 0.0,
        "Inclination(deg)": 53.0,
        "Latitude(deg)": -36.80504932286392,
        "Longitude(deg)": -94.11869841240983,
        "Mean Anomaly(deg)": -131.73399732613294,
        "RAAN(deg)": 154.96005470403458,
        "Satellite Name": "Starlink Shell 1 693",
        "Satellite Number": 693,
        "Semi-Major Axis(m)": 6931778.249405717,
        "Time(s)": 770
    },
    {
        "Altitude(m)": 565383.6473624269,
        "Argument of Periapsis(deg)": 0.027189121401876473,
        "Eccentricity": 0.0,
        "Inclination(deg)": 53.0,
        "Latitude(deg)": -37.21838907556976,
        "Longitude(deg)": -93.57217512228074,
        "Mean Anomaly(deg)": -131.10716612257622,
        "RAAN(deg)": 154.95953593395714,
        "Satellite Name": "Starlink Shell 1 693",
        "Satellite Number": 693,
        "Semi-Major Axis(m)": 6931778.249405717,
        "Time(s)": 780
    },
    {
        "Altitude(m)": 565551.8457861015,
        "Argument of Periapsis(deg)": 0.02753769988138771,
        "Eccentricity": 0.0,
        "Inclination(deg)": 53.0,
        "Latitude(deg)": -37.628740863488375,
        "Longitude(deg)": -93.01924676215337,
        "Mean Anomaly(deg)": -130.48033491901955,
        "RAAN(deg)": 154.95901716387965,
        "Satellite Name": "Starlink Shell 1 693",
        "Satellite Number": 693,
        "Semi-Major Axis(m)": 6931778.249405717,
        "Time(s)": 790
    },
    {
        "Altitude(m)": 565719.0425941427,
        "Argument of Periapsis(deg)": 0.02788627836089895,
        "Eccentricity": 0.0,
        "Inclination(deg)": 53.0,
        "Latitude(deg)": -38.03602878160572,
        "Longitude(deg)": -92.45979431983157,
        "Mean Anomaly(deg)": -129.85350371546278,
        "RAAN(deg)": 154.9584983938022,
        "Satellite Name": "Starlink Shell 1 693",
        "Satellite Number": 693,
        "Semi-Major Axis(m)": 6931778.249405717,
        "Time(s)": 800
    },
    {
        "Altitude(m)": 565885.1730928074,
        "Argument of Periapsis(deg)": 0.02823485684041019,
        "Eccentricity": 0.0,
        "Inclination(deg)": 53.0,
        "Latitude(deg)": -38.44017523055717,
        "Longitude(deg)": -91.89369876195327,
        "Mean Anomaly(deg)": -129.22667251190606,
        "RAAN(deg)": 154.9579796237247,
        "Satellite Name": "Starlink Shell 1 693",
        "Satellite Number": 693,
        "Semi-Major Axis(m)": 6931778.249405717,
        "Time(s)": 810
    },
    {
        "Altitude(m)": 566050.172918199,
        "Argument of Periapsis(deg)": 0.028583435319921423,
        "Eccentricity": 0.0,
        "Inclination(deg)": 53.0,
        "Latitude(deg)": -38.84110089216859,
        "Longitude(deg)": -91.32084068765832,
        "Mean Anomaly(deg)": -128.59984130834937,
        "RAAN(deg)": 154.95746085364723,
        "Satellite Name": "Starlink Shell 1 693",
        "Satellite Number": 693,
        "Semi-Major Axis(m)": 6931778.249405717,
        "Time(s)": 820
    },
    {
        "Altitude(m)": 566213.9780648832,
        "Argument of Periapsis(deg)": 0.028932013799432665,
        "Eccentricity": 0.0,
        "Inclination(deg)": 53.0,
        "Latitude(deg)": -39.238724706699365,
        "Longitude(deg)": -90.74110150812628,
        "Mean Anomaly(deg)": -127.97301010479264,
        "RAAN(deg)": 154.95694208356974,
        "Satellite Name": "Starlink Shell 1 693",
        "Satellite Number": 693,
        "Semi-Major Axis(m)": 6931778.249405717,
        "Time(s)": 830
    },
    {
        "Altitude(m)": 566376.5249143107,
        "Argument of Periapsis(deg)": 0.029280592278943897,
        "Eccentricity": 0.0,
        "Inclination(deg)": 53.0,
        "Latitude(deg)": -39.632963852009276,
        "Longitude(deg)": -90.15436312683318,
        "Mean Anomaly(deg)": -127.34617890123599,
        "RAAN(deg)": 154.9564233134923,
        "Satellite Name": "Starlink Shell 1 693",
        "Satellite Number": 693,
        "Semi-Major Axis(m)": 6931778.249405717,
        "Time(s)": 840
    },
    {
        "Altitude(m)": 566537.7502630802,
        "Argument of Periapsis(deg)": 0.029629170758455132,
        "Eccentricity": 0.0,
        "Inclination(deg)": 53.0,
        "Latitude(deg)": -40.02373372488566,
        "Longitude(deg)": -89.56050763399253,
        "Mean Anomaly(deg)": -126.7193476976792,
        "RAAN(deg)": 154.95590454341482,
        "Satellite Name": "Starlink Shell 1 693",
        "Satellite Number": 693,
        "Semi-Major Axis(m)": 6931778.249405717,
        "Time(s)": 850
    },
    {
        "Altitude(m)": 566697.5913509977,
        "Argument of Periapsis(deg)": 0.02997774923796637,
        "Eccentricity": 0.0,
        "Inclination(deg)": 53.0,
        "Latitude(deg)": -40.410947924778434,
        "Longitude(deg)": -88.9594186967392,
        "Mean Anomaly(deg)": -126.09251649412249,
        "RAAN(deg)": 154.95538577333735,
        "Satellite Name": "Starlink Shell 1 693",
        "Satellite Number": 693,
        "Semi-Major Axis(m)": 6931778.249405717,
        "Time(s)": 860
    },
    {
        "Altitude(m)": 566855.9858888902,
        "Argument of Periapsis(deg)": 0.030326327717477602,
        "Eccentricity": 0.0,
        "Inclination(deg)": 53.0,
        "Latitude(deg)": -40.79451824021366,
        "Longitude(deg)": -88.3509804431846,
        "Mean Anomaly(deg)": -125.4656852905658,
        "RAAN(deg)": 154.95486700325986,
        "Satellite Name": "Starlink Shell 1 693",
        "Satellite Number": 693,
        "Semi-Major Axis(m)": 6931778.249405717,
        "Time(s)": 870
    },
    {
        "Altitude(m)": 567012.8720862273,
        "Argument of Periapsis(deg)": 0.030674906196988847,
        "Eccentricity": 0.0,
        "Inclination(deg)": 53.0,
        "Latitude(deg)": -41.17435463816326,
        "Longitude(deg)": -87.73507888380678,
        "Mean Anomaly(deg)": -124.83885408700903,
        "RAAN(deg)": 154.9543482331824,
        "Satellite Name": "Starlink Shell 1 693",
        "Satellite Number": 693,
        "Semi-Major Axis(m)": 6931778.249405717,
        "Time(s)": 880
    },
    {
        "Altitude(m)": 567168.1886784955,
        "Argument of Periapsis(deg)": 0.031023484676500086,
        "Eccentricity": 0.0,
        "Inclination(deg)": 53.0,
        "Latitude(deg)": -41.55036525667049,
        "Longitude(deg)": -87.1116016682509,
        "Mean Anomaly(deg)": -124.21202288345238,
        "RAAN(deg)": 154.9538294631049,
        "Satellite Name": "Starlink Shell 1 693",
        "Satellite Number": 693,
        "Semi-Major Axis(m)": 6931778.249405717,
        "Time(s)": 890
    },
    {
        "Altitude(m)": 567321.874954317,
        "Argument of Periapsis(deg)": 0.03137206315601132,
        "Eccentricity": 0.0,
        "Inclination(deg)": 53.0,
        "Latitude(deg)": -41.92245640104463,
        "Longitude(deg)": -86.48043785898196,
        "Mean Anomaly(deg)": -123.58519167989562,
        "RAAN(deg)": 154.95331069302748,
        "Satellite Name": "Starlink Shell 1 693",
        "Satellite Number": 693,
        "Semi-Major Axis(m)": 6931778.249405717,
        "Time(s)": 900
    },
    {
        "Altitude(m)": 567473.870782293,
        "Argument of Periapsis(deg)": 0.03172064163552255,
        "Eccentricity": 0.0,
        "Inclination(deg)": 53.0,
        "Latitude(deg)": -42.29053254395054,
        "Longitude(deg)": -85.84147923509191,
        "Mean Anomaly(deg)": -122.95836047633895,
        "RAAN(deg)": 154.95279192294998,
        "Satellite Name": "Starlink Shell 1 693",
        "Satellite Number": 693,
        "Semi-Major Axis(m)": 6931778.249405717,
        "Time(s)": 910
    },
    {
        "Altitude(m)": 567624.1166376102,
        "Argument of Periapsis(deg)": 0.0320692201150338,
        "Eccentricity": 0.0,
        "Inclination(deg)": 53.0,
        "Latitude(deg)": -42.65449632973949,
        "Longitude(deg)": -85.19462010086711,
        "Mean Anomaly(deg)": -122.33152927278219,
        "RAAN(deg)": 154.95227315287252,
        "Satellite Name": "Starlink Shell 1 693",
        "Satellite Number": 693,
        "Semi-Major Axis(m)": 6931778.249405717,
        "Time(s)": 920
    },
    {
        "Altitude(m)": 567772.5536283241,
        "Argument of Periapsis(deg)": 0.032417798594545036,
        "Eccentricity": 0.0,
        "Inclination(deg)": 53.0,
        "Latitude(deg)": -43.01424858337529,
        "Longitude(deg)": -84.53975711229174,
        "Mean Anomaly(deg)": -121.70469806922554,
        "RAAN(deg)": 154.95175438279503,
        "Satellite Name": "Starlink Shell 1 693",
        "Satellite Number": 693,
        "Semi-Major Axis(m)": 6931778.249405717,
        "Time(s)": 930
    },
    {
        "Altitude(m)": 567919.1235213774,
        "Argument of Periapsis(deg)": 0.03276637707405627,
        "Eccentricity": 0.0,
        "Inclination(deg)": 53.0,
        "Latitude(deg)": -43.369688324329324,
        "Longitude(deg)": -83.87679063457149,
        "Mean Anomaly(deg)": -121.07786686566878,
        "RAAN(deg)": 154.95123561271754,
        "Satellite Name": "Starlink Shell 1 693",
        "Satellite Number": 693,
        "Semi-Major Axis(m)": 6931778.249405717,
        "Time(s)": 940
    }
]